NORAD_CAT_ID,OBJECT_NAME,OBJECT_TYPE,EPOCH,MEAN_MOTION,ECCENTRICITY,INCLINATION,RA_OF_ASC_NODE,ARG_OF_PERICENTER,MEAN_ANOMALY,BSTAR,MEAN_MOTION_DOT,MEAN_MOTION_DDOT,TLE_LINE0,TLE_LINE1,TLE_LINE2,SEMIMAJOR_AXIS,PERIOD,APOGEE,PERIGEE,DECAYED
55757.0,STARLINK-5544,PAYLOAD,2024-06-05 11:19:43,14.98331606,0.0003019,70.0012,63.6591,270.7122,89.3691,3.1726e-06,-5.5e-07,0.0,0 STARLINK-5544,1 55757U 23028S   24157.47202990 -.00000055  00000-0  31726-5 0  9991,2 55757  70.0012  63.6591 0003019 270.7122  89.3691 14.98331606 69849,6950.188,96.107,574.151,569.955,0.0
55757.0,STARLINK-5544,PAYLOAD,2024-06-05 17:44:15,14.98332167,0.0002394,70.002,62.9868,272.7874,87.3011,-1.5592e-05,-2.79e-06,0.0,0 STARLINK-5544,1 55757U 23028S   24157.73907230 -.00000279  00000-0 -15592-4 0  9990,2 55757  70.0020  62.9868 0002394 272.7874  87.3011 14.98332167 69889,6950.186,96.107,573.715,570.387,0.0
55757.0,STARLINK-5544,PAYLOAD,2024-06-06 11:21:44,14.98330166,0.0002508,70.0029,61.1327,269.7933,90.2939,-9.6334e-06,-2.08e-06,0.0,0 STARLINK-5544,1 55757U 23028S   24158.47343362 -.00000208  00000-0 -96334-5 0  9998,2 55757  70.0029  61.1327 0002508 269.7933  90.2939 14.98330166 69999,6950.192,96.107,573.8,570.314,0.0
55757.0,STARLINK-5544,PAYLOAD,2024-06-06 17:46:16,14.98333433,0.0002553,70.0024,60.4593,269.3029,90.7838,2.1454e-05,1.63e-06,0.0,0 STARLINK-5544,1 55757U 23028S   24158.74047041  .00000163  00000-0  21454-4 0  9991,2 55757  70.0024  60.4593 0002553 269.3029  90.7838 14.98333433 70033,6950.182,96.107,573.822,570.273,0.0
55757.0,STARLINK-5544,PAYLOAD,2024-06-07 22:36:41,14.98328491,0.0002755,70.0015,57.4296,267.7239,92.3605,0.00011033,1.224e-05,0.0,0 STARLINK-5544,1 55757U 23028S   24159.94215157  .00001224  00000-0  11033-3 0  9999,2 55757  70.0015  57.4296 0002755 267.7239  92.3605 14.98328491 70216,6950.198,96.107,573.977,570.148,0.0
55757.0,STARLINK-5544,PAYLOAD,2024-06-08 03:25:05,14.98333716,0.0002797,70.0011,56.9264,273.3656,86.7183,0.00014054,1.584e-05,0.0,0 STARLINK-5544,1 55757U 23028S   24160.14242787  .00001584  00000-0  14054-3 0  9997,2 55757  70.0011  56.9264 0002797 273.3656  86.7183 14.98333716 70240,6950.181,96.107,573.99,570.102,0.0
55757.0,STARLINK-5544,PAYLOAD,2024-06-08 09:49:38,14.98331475,0.0002778,70.0022,56.2517,270.7241,89.3599,8.2545e-05,8.92e-06,0.0,0 STARLINK-5544,1 55757U 23028S   24160.40947012  .00000892  00000-0  82545-4 0  9991,2 55757  70.0022  56.2517 0002778 270.7241  89.3599 14.98331475 70280,6950.188,96.107,573.984,570.123,0.0
55757.0,STARLINK-5544,PAYLOAD,2024-06-08 16:14:10,14.98330686,0.0002599,70.0032,55.5804,273.2722,86.814,3.1258e-05,2.8e-06,0.0,0 STARLINK-5544,1 55757U 23028S   24160.67651296  .00000280  00000-0  31258-4 0  9992,2 55757  70.0032  55.5804 0002599 273.2722  86.8140 14.98330686 70327,6950.191,96.107,573.862,570.249,0.0
55757.0,STARLINK-5544,PAYLOAD,2024-06-08 22:38:43,14.98328862,0.0002444,70.0026,54.9053,269.9613,90.1266,2.9433e-06,-5.8e-07,0.0,0 STARLINK-5544,1 55757U 23028S   24160.94355489 -.00000058  00000-0  29433-5 0  9994,2 55757  70.0026  54.9053 0002444 269.9613  90.1266 14.98328862 70363,6950.196,96.107,573.76,570.363,0.0
55757.0,STARLINK-5544,PAYLOAD,2024-06-09 03:27:07,14.98330385,0.0002447,70.0024,54.4007,273.5296,86.5583,2.6901e-05,2.28e-06,0.0,0 STARLINK-5544,1 55757U 23028S   24161.14383331  .00000228  00000-0  26901-4 0  9998,2 55757  70.0024  54.4007 0002447 273.5296  86.5583 14.98330385 70393,6950.192,96.107,573.757,570.356,0.0
55757.0,STARLINK-5544,PAYLOAD,2024-06-09 21:04:36,14.98321071,0.0002498,70.0027,52.5488,278.2812,81.8064,0.00013815,1.555e-05,0.0,0 STARLINK-5544,1 55757U 23028S   24161.87819794  .00001555  00000-0  13815-3 0  9998,2 55757  70.0027  52.5488 0002498 278.2812  81.8064 14.98321071 70507,6950.221,96.108,573.822,570.349,0.0
55757.0,STARLINK-5544,PAYLOAD,2024-06-09 22:40:44,14.98327398,0.0002538,70.0015,52.3815,271.0222,89.0646,4.2118e-05,4.1e-06,0.0,0 STARLINK-5544,1 55757U 23028S   24161.94495498  .00000410  00000-0  42118-4 0  9995,2 55757  70.0015  52.3815 0002538 271.0222  89.0646 14.98327398 70512,6950.201,96.107,573.83,570.302,0.0
55757.0,STARLINK-5544,PAYLOAD,2024-06-10 01:52:59,14.98332513,0.0002988,70.0009,52.0426,271.1794,88.9023,7.0776e-05,7.52e-06,0.0,0 STARLINK-5544,1 55757U 23028S   24162.07847137  .00000752  00000-0  70776-4 0  9991,2 55757  70.0009  52.0426 0002988 271.1794  88.9023 14.98332513 70538,6950.185,96.107,574.127,569.973,0.0
55757.0,STARLINK-5544,PAYLOAD,2024-06-10 22:42:44,14.98333204,0.0002659,70.001,49.854,265.4676,94.6179,7.7458e-05,8.31e-06,0.0,0 STARLINK-5544,1 55757U 23028S   24162.94635019  .00000831  00000-0  77458-4 0  9993,2 55757  70.0010  49.8540 0002659 265.4676  94.6179 14.98333204 70669,6950.183,96.107,573.896,570.2,0.0
55757.0,STARLINK-5544,PAYLOAD,2024-06-11 01:55:00,14.9833715,0.0002645,70.0012,49.5173,266.1857,93.8999,0.00010698,1.184e-05,0.0,0 STARLINK-5544,1 55757U 23028S   24163.07986627  .00001184  00000-0  10698-3 0  9996,2 55757  70.0012  49.5173 0002645 266.1857  93.8999 14.98337150 70681,6950.171,96.107,573.874,570.197,0.0
55757.0,STARLINK-5544,PAYLOAD,2024-06-11 09:55:40,14.98335357,0.0002628,70.0021,48.6773,280.0808,80.0055,6.8484e-05,7.24e-06,0.0,0 STARLINK-5544,1 55757U 23028S   24163.41366864  .00000724  00000-0  68484-4 0  9995,2 55757  70.0021  48.6773 0002628 280.0808  80.0055 14.98335357 70733,6950.176,96.107,573.868,570.215,0.0
55757.0,STARLINK-5544,PAYLOAD,2024-06-12 01:57:01,14.98336614,0.0002925,70.0004,46.9935,266.5223,93.5602,6.8296e-05,7.22e-06,0.0,0 STARLINK-5544,1 55757U 23028S   24164.08126573  .00000722  00000-0  68296-4 0  9999,2 55757  70.0004  46.9935 0002925 266.5223  93.5602 14.98336614 70830,6950.172,96.107,574.07,570.005,0.0
55757.0,STARLINK-5544,PAYLOAD,2024-06-12 21:10:38,14.9831332,0.0002792,70.0005,44.9732,266.3597,93.7242,0.00021006,2.413e-05,0.0,0 STARLINK-5544,1 55757U 23028S   24164.88239570  .00002413  00000-0  21006-3 0  9995,2 55757  70.0005  44.9732 0002792 266.3597  93.7242 14.98313320 70952,6950.244,96.108,574.05,570.169,0.0
55757.0,STARLINK-5544,PAYLOAD,2024-06-13 01:59:04,14.98278896,0.0002531,70.0005,44.4684,266.4483,93.6387,0.00080743,9.541e-05,0.0,0 STARLINK-5544,1 55757U 23028S   24165.08268599  .00009541  00000-0  80743-3 0  9993,2 55757  70.0005  44.4684 0002531 266.4483  93.6387 14.98278896 70989,6950.351,96.11,573.975,570.457,0.0
55757.0,STARLINK-5544,PAYLOAD,2024-06-13 22:48:48,14.98325581,0.00029,70.0004,42.2805,268.9704,91.1123,-7.2383e-05,-9.56e-06,0.0,0 STARLINK-5544,1 55757U 23028S   24165.95055756 -.00000956  00000-0 -72383-4 0  9993,2 55757  70.0004  42.2805 0002900 268.9704  91.1123 14.98325581 71113,6950.207,96.107,574.087,570.056,0.0
55757.0,STARLINK-5544,PAYLOAD,2024-06-14 08:25:36,14.98330254,0.0002941,70.0006,41.2719,271.398,88.6842,3.8632e-05,3.68e-06,0.0,0 STARLINK-5544,1 55757U 23028S   24166.35111255  .00000368  00000-0  38632-4 0  9999,2 55757  70.0006  41.2719 0002941 271.3980  88.6842 14.98330254 71175,6950.192,96.107,574.101,570.013,0.0
55757.0,STARLINK-5544,PAYLOAD,2024-06-14 22:50:48,14.98335867,0.0003054,70.0002,39.7565,272.7367,87.3442,0.00014895,1.685e-05,0.0,0 STARLINK-5544,1 55757U 23028S   24166.95194566  .00001685  00000-0  14895-3 0  9998,2 55757  70.0002  39.7565 0003054 272.7367  87.3442 14.98335867 71269,6950.175,96.107,574.162,569.917,0.0
55757.0,STARLINK-5544,PAYLOAD,2024-06-15 14:52:09,14.98329401,0.0002942,70.0003,38.0743,267.7242,92.358,8.1323e-05,8.77e-06,0.0,0 STARLINK-5544,1 55757U 23028S   24167.61955010  .00000877  00000-0  81323-4 0  9994,2 55757  70.0003  38.0743 0002942 267.7242  92.3580 14.98329401 71368,6950.195,96.107,574.104,570.015,0.0
55757.0,STARLINK-5544,PAYLOAD,2024-06-15 22:52:49,14.98331943,0.0002927,70.0003,37.2328,266.5113,93.5712,9.8496e-05,1.082e-05,0.0,0 STARLINK-5544,1 55757U 23028S   24167.95334776  .00001082  00000-0  98496-4 0  9999,2 55757  70.0003  37.2328 0002927 266.5113  93.5712 14.98331943 71415,6950.187,96.107,574.086,570.018,0.0
55757.0,STARLINK-5544,PAYLOAD,2024-06-16 08:29:37,14.98331005,0.0002923,70.0003,36.2228,268.034,92.0484,3.7625e-05,3.56e-06,0.0,0 STARLINK-5544,1 55757U 23028S   24168.35390933  .00000356  00000-0  37625-4 0  9991,2 55757  70.0003  36.2228 0002923 268.0340  92.0484 14.98331005 71473,6950.19,96.107,574.086,570.023,0.0
55757.0,STARLINK-5544,PAYLOAD,2024-06-16 21:18:42,14.98330638,0.000282,70.0006,34.8764,263.8004,96.2834,-9.5389e-05,-1.231e-05,0.0,0 STARLINK-5544,1 55757U 23028S   24168.88799230 -.00001231  00000-0 -95389-4 0  9998,2 55757  70.0006  34.8764 0002820 263.8004  96.2834 14.98330638 71556,6950.191,96.107,574.016,570.096,0.0
55757.0,STARLINK-5544,PAYLOAD,2024-06-17 21:20:43,14.98331439,0.0003069,70.0,32.3506,267.3802,92.7006,3.9864e-05,3.83e-06,0.0,0 STARLINK-5544,1 55757U 23028S   24169.88938697  .00000383  00000-0  39864-4 0  9992,2 55757  70.0000  32.3506 0003069 267.3802  92.7006 14.98331439 71707,6950.188,96.107,574.186,569.92,0.0
55757.0,STARLINK-5544,PAYLOAD,2024-06-18 14:58:11,14.98329297,0.0003033,69.9999,30.498,269.0632,91.018,0.00011032,1.224e-05,0.0,0 STARLINK-5544,1 55757U 23028S   24170.62374538  .00001224  00000-0  11032-3 0  9995,2 55757  69.9999  30.4980 0003033 269.0632  91.0180 14.98329297 71813,6950.195,96.107,574.168,569.952,0.0
55757.0,STARLINK-5544,PAYLOAD,2024-06-18 21:22:43,14.9833244,0.0003064,69.9999,29.8251,269.738,90.3428,8.8352e-05,9.61e-06,0.0,0 STARLINK-5544,1 55757U 23028S   24170.89078411  .00000961  00000-0  88352-4 0  9992,2 55757  69.9999  29.8251 0003064 269.7380  90.3428 14.98332440 71852,6950.185,96.107,574.18,569.921,0.0
55757.0,STARLINK-5544,PAYLOAD,2024-06-19 15:00:12,14.98329366,0.0002966,70.0,27.9733,269.9377,90.1442,1.2194e-06,-7.8e-07,0.0,0 STARLINK-5544,1 55757U 23028S   24171.62514778 -.00000078  00000-0  12194-5 0  9997,2 55757  70.0000  27.9733 0002966 269.9377  90.1442 14.98329366 71969,6950.195,96.107,574.121,569.998,0.0
